OBJECT_NAME,OBJECT_ID,EPOCH,MEAN_MOTION,ECCENTRICITY,INCLINATION,RA_OF_ASC_NODE,ARG_OF_PERICENTER,MEAN_ANOMALY,EPHEMERIS_TYPE,CLASSIFICATION_TYPE,NORAD_CAT_ID,ELEMENT_SET_NO,REV_AT_EPOCH,BSTAR,MEAN_MOTION_DOT,MEAN_MOTION_DDOT
STARLINK-31821,2024-090H,2026-06-18T11:30:12.712320,15.27570398,.00012441,43.0028,334.3756,265.0196,95.0514,0,U,59737,999,11885,.1734735E-4,.215E-5,0
STARLINK-31819,2024-090J,2026-06-17T21:15:24.777216,15.27570565,.0001379,43.0074,337.6563,279.3155,80.7540,0,U,59738,999,11876,-.13956814E-4,-.646E-5,0
STARLINK-31726,2024-090K,2026-06-18T12:21:48.522816,15.27574743,.00017152,43.0036,333.7823,268.7508,91.3147,0,U,59739,999,11886,.5017512E-5,-.124E-5,0
STARLINK-31759,2024-090L,2026-06-18T11:56:06.763200,15.27577610,.0001013,43.0014,334.5049,265.7295,94.3440,0,U,59740,999,11885,.12656331E-4,.86E-6,0
STARLINK-31818,2024-090M,2026-06-18T11:45:00.902592,15.27576231,.00011353,43.0048,334.4469,261.4297,98.6426,0,U,59741,999,11885,.14026925E-4,.124E-5,0
STARLINK-31816,2024-090N,2026-06-18T12:05:21.862464,15.27572048,.00019374,43.0066,334.5343,276.4980,83.5651,0,U,59742,999,11883,.1041765E-5,-.234E-5,0
STARLINK-31809,2024-090P,2026-06-18T11:13:06.179232,15.27572936,.00010942,43.0016,327.3594,269.4947,90.5779,0,U,59743,999,11893,.3028404E-5,-.179E-5,0
STARLINK-31779,2024-090Q,2026-06-18T10:58:46.149312,15.27568047,.00014084,43.0024,334.2061,256.2592,103.8103,0,U,59744,999,11885,-.18269286E-4,-.765E-5,0
STARLINK-31805,2024-090R,2026-06-18T12:16:15.087936,15.27581822,.00013494,43.0038,333.7522,267.9494,92.1203,0,U,59745,999,11886,.4089221E-4,.863E-5,0
STARLINK-31681,2024-090S,2026-06-18T11:18:39.323808,15.27574355,.00012358,43.0037,327.3897,278.2038,81.8673,0,U,59746,999,11893,.2231899E-5,-.201E-5,0
STARLINK-31636,2024-090T,2026-06-18T11:02:27.229632,15.27576653,.00014227,43.0039,334.2256,252.0566,108.0130,0,U,59747,999,11885,.38118258E-4,.787E-5,0
STARLINK-31640,2024-090U,2026-06-18T11:26:30.417216,15.27578701,.00012045,43.0006,334.3508,272.8990,87.1724,0,U,59748,999,11885,.13194876E-4,.101E-5,0
STARLINK-31677,2024-090V,2026-06-18T11:50:34.132704,15.27571358,.00012295,43.0043,334.4755,272.5798,87.4913,0,U,59749,999,11884,.11238034E-4,.47E-6,0
STARLINK-31783,2024-090W,2026-06-16T19:13:35.464224,15.27580276,.00017248,43.0210,344.1383,278.8237,81.2420,0,U,59750,999,11858,.25065194E-4,.427E-5,0
STARLINK-31808,2024-090X,2026-06-18T12:10:42.656160,15.27573826,.00009109,43.0004,333.7202,268.3682,91.7066,0,U,59751,999,11885,.6991354E-5,-.7E-6,0
STARLINK-31822,2024-090Y,2026-06-18T12:42:09.654624,15.27577126,.00013573,43.0022,333.8849,265.7131,94.3566,0,U,59752,999,11885,.18717819E-4,.253E-5,0
STARLINK-11118 [DTC],2024-091B,2026-06-18T10:41:04.158528,15.69698896,.00009116,53.1594,69.9051,78.6014,281.5106,0,U,59754,999,12133,-.2678812E-5,-.913E-5,0
STARLINK-11132 [DTC],2024-091C,2026-06-17T23:45:08.231904,15.69711853,.00008495,53.1583,72.0396,90.5200,269.5915,0,U,59755,999,12126,.2636443E-5,-.269E-5,0
STARLINK-11131 [DTC],2024-091D,2026-06-18T10:19:51.767328,15.69710556,.00012537,53.1594,69.8078,74.3588,285.7569,0,U,59756,999,12133,.4031436E-5,-.1E-5,0
STARLINK-11114 [DTC],2024-091E,2026-06-18T10:12:47.912256,15.69711512,.00004729,53.1589,69.7983,103.4330,256.6741,0,U,59757,999,12133,.2214655E-5,-.319E-5,0
STARLINK-11105 [DTC],2024-091F,2026-06-18T10:05:44.292192,15.69710842,.0001235,53.1592,69.7634,106.0998,254.0156,0,U,59758,999,12133,.3511398E-5,-.163E-5,0
STARLINK-11097 [DTC],2024-091G,2026-06-18T00:48:33.880608,15.69710321,.00011713,53.1596,71.5949,73.0166,287.0980,0,U,59759,999,12127,-.714868E-6,-.675E-5,0
STARLINK-11098 [DTC],2024-091H,2026-06-18T00:41:29.711904,15.69725730,.0001083,53.1584,71.5607,85.5622,274.5519,0,U,59760,999,12127,.37120322E-4,.3913E-4,0
STARLINK-11117 [DTC],2024-091J,2026-06-18T00:34:26.146272,15.69711036,.00010306,53.1593,71.5280,77.9684,282.1450,0,U,59761,999,12127,.13539654E-4,.1052E-4,0
STARLINK-11110 [DTC],2024-091K,2026-06-18T00:27:22.441536,15.69708824,.00010073,53.1592,71.4925,87.7720,272.3413,0,U,59762,999,12127,.1800748E-5,-.37E-5,0
STARLINK-11104 [DTC],2024-091L,2026-06-18T00:20:18.684096,15.69709075,.00009661,53.1599,71.4630,82.5251,277.5877,0,U,59763,999,12127,-.151087E-6,-.607E-5,0
STARLINK-11111 [DTC],2024-091M,2026-06-17T22:29:32.896320,15.80326439,.00044317,53.1472,69.4556,113.4077,246.7411,0,U,59764,999,12129,.5273593E-3,.102066E-2,0
STARLINK-11106 [DTC],2024-091N,2026-06-18T10:55:01.764192,15.69710260,.00009599,53.1597,69.2332,92.3738,267.7390,0,U,59765,999,12134,.6507127E-5,.2E-5,0
STARLINK-31739,2024-091P,2026-06-18T14:05:25.630080,15.30194003,.00014358,53.1619,275.3003,97.0772,263.0392,0,U,59766,999,11849,.74937505E-4,.186E-4,0
STARLINK-31828,2024-091Q,2026-06-18T14:45:13.654368,15.31701772,.00016235,53.1593,277.5931,61.3632,298.7533,0,U,59767,999,11846,.415157E-6,-.353E-5,0
