[
  {
    "name": "STARLINK-31821",
    "noradId": "59737",
    "line1": "1 59737U 24090H   26169.47931380  .00000215  00000+0  17347-4 0  9998",
    "line2": "2 59737  43.0028 334.3756 0001244 265.0196  95.0514 15.27570398118855"
  },
  {
    "name": "STARLINK-31819",
    "noradId": "59738",
    "line1": "1 59738U 24090J   26168.88570344 -.00000646  00000+0 -13957-4 0  9995",
    "line2": "2 59738  43.0074 337.6563 0001379 279.3155  80.7540 15.27570565118767"
  },
  {
    "name": "STARLINK-31726",
    "noradId": "59739",
    "line1": "1 59739U 24090K   26169.51514494 -.00000124  00000+0  50175-5 0  9995",
    "line2": "2 59739  43.0036 333.7823 0001715 268.7508  91.3147 15.27574743118864"
  },
  {
    "name": "STARLINK-31759",
    "noradId": "59740",
    "line1": "1 59740U 24090L   26169.49730050  .00000086  00000+0  12656-4 0  9999",
    "line2": "2 59740  43.0014 334.5049 0001013 265.7295  94.3440 15.27577610118856"
  },
  {
    "name": "STARLINK-31818",
    "noradId": "59741",
    "line1": "1 59741U 24090M   26169.48959378  .00000124  00000+0  14027-4 0  9992",
    "line2": "2 59741  43.0048 334.4469 0001135 261.4297  98.6426 15.27576231118858"
  },
  {
    "name": "STARLINK-31816",
    "noradId": "59742",
    "line1": "1 59742U 24090N   26169.50372526 -.00000234  00000+0  10418-5 0  9994",
    "line2": "2 59742  43.0066 334.5343 0001937 276.4980  83.5651 15.27572048118839"
  },
  {
    "name": "STARLINK-31809",
    "noradId": "59743",
    "line1": "1 59743U 24090P   26169.46743263 -.00000179  00000+0  30284-5 0  9991",
    "line2": "2 59743  43.0016 327.3594 0001094 269.4947  90.5779 15.27572936118938"
  },
  {
    "name": "STARLINK-31779",
    "noradId": "59744",
    "line1": "1 59744U 24090Q   26169.45747858 -.00000765  00000+0 -18269-4 0  9995",
    "line2": "2 59744  43.0024 334.2061 0001408 256.2592 103.8103 15.27568047118851"
  },
  {
    "name": "STARLINK-31805",
    "noradId": "59745",
    "line1": "1 59745U 24090R   26169.51128574  .00000863  00000+0  40892-4 0  9995",
    "line2": "2 59745  43.0038 333.7522 0001349 267.9494  92.1203 15.27581822118865"
  },
  {
    "name": "STARLINK-31681",
    "noradId": "59746",
    "line1": "1 59746U 24090S   26169.47128847 -.00000201  00000+0  22319-5 0  9996",
    "line2": "2 59746  43.0037 327.3897 0001235 278.2038  81.8673 15.27574355118939"
  },
  {
    "name": "STARLINK-31636",
    "noradId": "59747",
    "line1": "1 59747U 24090T   26169.46003738  .00000787  00000+0  38118-4 0  9998",
    "line2": "2 59747  43.0039 334.2256 0001422 252.0566 108.0130 15.27576653118856"
  },
  {
    "name": "STARLINK-31640",
    "noradId": "59748",
    "line1": "1 59748U 24090U   26169.47674094  .00000101  00000+0  13195-4 0  9997",
    "line2": "2 59748  43.0006 334.3508 0001204 272.8990  87.1724 15.27578701118853"
  },
  {
    "name": "STARLINK-31677",
    "noradId": "59749",
    "line1": "1 59749U 24090V   26169.49345061  .00000047  00000+0  11238-4 0  9994",
    "line2": "2 59749  43.0043 334.4755 0001229 272.5798  87.4913 15.27571358118843"
  },
  {
    "name": "STARLINK-31783",
    "noradId": "59750",
    "line1": "1 59750U 24090W   26167.80110491  .00000427  00000+0  25065-4 0  9991",
    "line2": "2 59750  43.0210 344.1383 0001724 278.8237  81.2420 15.27580276118588"
  },
  {
    "name": "STARLINK-31808",
    "noradId": "59751",
    "line1": "1 59751U 24090X   26169.50743815 -.00000070  00000+0  69914-5 0  9990",
    "line2": "2 59751  43.0004 333.7202 0000910 268.3682  91.7066 15.27573826118853"
  },
  {
    "name": "STARLINK-31822",
    "noradId": "59752",
    "line1": "1 59752U 24090Y   26169.52927841  .00000253  00000+0  18718-4 0  9993",
    "line2": "2 59752  43.0022 333.8849 0001357 265.7131  94.3566 15.27577126118859"
  },
  {
    "name": "STARLINK-11118 [DTC]",
    "noradId": "59754",
    "line1": "1 59754U 24091B   26169.44518702 -.00000913  00000+0 -26788-5 0  9991",
    "line2": "2 59754  53.1594  69.9051 0000911  78.6014 281.5106 15.69698896121336"
  },
  {
    "name": "STARLINK-11132 [DTC]",
    "noradId": "59755",
    "line1": "1 59755U 24091C   26168.98967861 -.00000269  00000+0  26364-5 0  9997",
    "line2": "2 59755  53.1583  72.0396 0000849  90.5200 269.5915 15.69711853121267"
  },
  {
    "name": "STARLINK-11131 [DTC]",
    "noradId": "59756",
    "line1": "1 59756U 24091D   26169.43046027 -.00000100  00000+0  40314-5 0  9996",
    "line2": "2 59756  53.1594  69.8078 0001253  74.3588 285.7569 15.69710556121332"
  },
  {
    "name": "STARLINK-11114 [DTC]",
    "noradId": "59757",
    "line1": "1 59757U 24091E   26169.42555454 -.00000319  00000+0  22147-5 0  9991",
    "line2": "2 59757  53.1589  69.7983 0000472 103.4330 256.6741 15.69711512121334"
  },
  {
    "name": "STARLINK-11105 [DTC]",
    "noradId": "59758",
    "line1": "1 59758U 24091F   26169.42065153 -.00000163  00000+0  35114-5 0  9999",
    "line2": "2 59758  53.1592  69.7634 0001235 106.0998 254.0156 15.69710842121336"
  },
  {
    "name": "STARLINK-11097 [DTC]",
    "noradId": "59759",
    "line1": "1 59759U 24091G   26169.03372547 -.00000675  00000+0 -71487-6 0  9998",
    "line2": "2 59759  53.1596  71.5949 0001171  73.0166 287.0980 15.69710321121276"
  },
  {
    "name": "STARLINK-11098 [DTC]",
    "noradId": "59760",
    "line1": "1 59760U 24091H   26169.02881611  .00003913  00000+0  37120-4 0  9996",
    "line2": "2 59760  53.1584  71.5607 0001083  85.5622 274.5519 15.69725730121272"
  },
  {
    "name": "STARLINK-11117 [DTC]",
    "noradId": "59761",
    "line1": "1 59761U 24091J   26169.02391373  .00001052  00000+0  13540-4 0  9990",
    "line2": "2 59761  53.1593  71.5280 0001030  77.9684 282.1450 15.69711036121278"
  },
  {
    "name": "STARLINK-11110 [DTC]",
    "noradId": "59762",
    "line1": "1 59762U 24091K   26169.01900974 -.00000370  00000+0  18007-5 0  9990",
    "line2": "2 59762  53.1592  71.4925 0001007  87.7720 272.3413 15.69708824121278"
  },
  {
    "name": "STARLINK-11104 [DTC]",
    "noradId": "59763",
    "line1": "1 59763U 24091L   26169.01410514 -.00000607  00000+0 -15109-6 0  9992",
    "line2": "2 59763  53.1599  71.4630 0000966  82.5251 277.5877 15.69709075121274"
  },
  {
    "name": "STARLINK-11111 [DTC]",
    "noradId": "59764",
    "line1": "1 59764U 24091M   26168.93718630  .00102066  00000+0  52736-3 0  9997",
    "line2": "2 59764  53.1472  69.4556 0004431 113.4077 246.7411 15.80326439121296"
  },
  {
    "name": "STARLINK-11106 [DTC]",
    "noradId": "59765",
    "line1": "1 59765U 24091N   26169.45488153  .00000200  00000+0  65071-5 0  9995",
    "line2": "2 59765  53.1597  69.2332 0000959  92.3738 267.7390 15.69710260121346"
  },
  {
    "name": "STARLINK-31739",
    "noradId": "59766",
    "line1": "1 59766U 24091P   26169.58710220  .00001860  00000+0  74938-4 0  9997",
    "line2": "2 59766  53.1619 275.3003 0001435  97.0772 263.0392 15.30194003118499"
  },
  {
    "name": "STARLINK-31828",
    "noradId": "59767",
    "line1": "1 59767U 24091Q   26169.61474137 -.00000353  00000+0  41516-6 0  9991",
    "line2": "2 59767  53.1593 277.5931 0001623  61.3632 298.7533 15.31701772118460"
  }
]